start=new Date('2021-10-07T00:00:00.000Z').valueOf();
sats=[{"ELEMENT_SET_NO":"999","EPOCH":"2021-10-06T20:35:38.153472","RA_OF_ASC_NODE":"115.8842","INCLINATION":"53.0536","SEMIMAJOR_AXIS":"6925.344","BSTAR":"0.00009330600000","CLASSIFICATION_TYPE":"U","EPHEMERIS_TYPE":"0","OBJECT_NAME":"STARLINK-1457","MEAN_MOTION_DDOT":"0.0000000000000","COUNTRY_CODE":"US","CENTER_NAME":"EARTH","GP_ID":"186423753","APOAPSIS":"548.529","MEAN_ELEMENT_THEORY":"SGP4","MEAN_ANOMALY":"276.4809","REV_AT_EPOCH":"7531","FILE":"3148521","ARG_OF_PERICENTER":"83.6397","MEAN_MOTION_DOT":"0.00001108","OBJECT_ID":"2020-035T","REF_FRAME":"TEME","NORAD_CAT_ID":"45674","RCS_SIZE":"LARGE","TLE_LINE1":"1 45674U 20035T   21279.85808048  .00001108  00000-0  93306-4 0  9993","LAUNCH_DATE":"2020-06-04","ECCENTRICITY":"0.00019060","TIME_SYSTEM":"UTC","DECAY_DATE":null,"PERIAPSIS":"545.889","OBJECT_TYPE":"PAYLOAD","SITE":"AFETR","PERIOD":"95.592","MEAN_MOTION":"15.06401423","TLE_LINE2":"2 45674  53.0536 115.8842 0001906  83.6397 276.4809 15.06401423 75319"},{"OBJECT_ID":"2020-035U","NORAD_CAT_ID":"45675","REF_FRAME":"TEME","MEAN_MOTION_DOT":"0.00001500","ARG_OF_PERICENTER":"85.1323","FILE":"3148521","MEAN_ELEMENT_THEORY":"SGP4","MEAN_ANOMALY":"274.9859","REV_AT_EPOCH":"7529","TLE_LINE1":"1 45675U 20035U   21279.78069784  .00001500  00000-0  11959-3 0  9991","LAUNCH_DATE":"2020-06-04","RCS_SIZE":"LARGE","DECAY_DATE":null,"TIME_SYSTEM":"UTC","ECCENTRICITY":"0.00016880","MEAN_MOTION":"15.06385867","TLE_LINE2":"2 45675  53.0545 116.2393 0001688  85.1323 274.9859 15.06385867 75297","SITE":"AFETR","OBJECT_TYPE":"PAYLOAD","PERIOD":"95.593","PERIAPSIS":"546.088","INCLINATION":"53.0545","SEMIMAJOR_AXIS":"6925.392","RA_OF_ASC_NODE":"116.2393","EPOCH":"2021-10-06T18:44:12.293376","ELEMENT_SET_NO":"999","BSTAR":"0.00011959000000","CLASSIFICATION_TYPE":"U","COUNTRY_CODE":"US","OBJECT_NAME":"STARLINK-1458","EPHEMERIS_TYPE":"0","MEAN_MOTION_DDOT":"0.0000000000000","CENTER_NAME":"EARTH","GP_ID":"186424004","APOAPSIS":"548.426"},{"ARG_OF_PERICENTER":"89.0636","MEAN_MOTION_DOT":"0.00000159","OBJECT_ID":"2020-035V","NORAD_CAT_ID":"45676","REF_FRAME":"TEME","MEAN_ANOMALY":"271.0584","MEAN_ELEMENT_THEORY":"SGP4","REV_AT_EPOCH":"7529","FILE":"3148521","RCS_SIZE":"LARGE","TLE_LINE1":"1 45676U 20035V   21279.81755171  .00000159  00000-0  29601-4 0  9991","LAUNCH_DATE":"2020-06-04","DECAY_DATE":null,"ECCENTRICITY":"0.00020210","TIME_SYSTEM":"UTC","SITE":"AFETR","OBJECT_TYPE":"PAYLOAD","PERIOD":"95.593","MEAN_MOTION":"15.06387305","TLE_LINE2":"2 45676  53.0531 116.0621 0002021  89.0636 271.0584 15.06387305 75299","PERIAPSIS":"545.853","RA_OF_ASC_NODE":"116.0621","EPOCH":"2021-10-06T19:37:16.467744","SEMIMAJOR_AXIS":"6925.387","INCLINATION":"53.0531","ELEMENT_SET_NO":"999","BSTAR":"0.00002960100000","CLASSIFICATION_TYPE":"U","COUNTRY_CODE":"US","EPHEMERIS_TYPE":"0","OBJECT_NAME":"STARLINK-1460","MEAN_MOTION_DDOT":"0.0000000000000","CENTER_NAME":"EARTH","GP_ID":"186422753","APOAPSIS":"548.652"},{"CLASSIFICATION_TYPE":"U","BSTAR":"0.00022968000000","ELEMENT_SET_NO":"999","SEMIMAJOR_AXIS":"6925.328","INCLINATION":"53.0535","EPOCH":"2021-10-06T21:28:42.888576","RA_OF_ASC_NODE":"115.7199","GP_ID":"186423002","CENTER_NAME":"EARTH","APOAPSIS":"548.600","OBJECT_NAME":"STARLINK-1392","EPHEMERIS_TYPE":"0","MEAN_MOTION_DDOT":"0.0000000000000","COUNTRY_CODE":"US","TLE_LINE1":"1 45677U 20035W   21279.89494084  .00003142  00000-0  22968-3 0  9996","LAUNCH_DATE":"2020-06-04","RCS_SIZE":"LARGE","FILE":"3148521","MEAN_ELEMENT_THEORY":"SGP4","MEAN_ANOMALY":"270.5760","REV_AT_EPOCH":"7534","OBJECT_ID":"2020-035W","NORAD_CAT_ID":"45677","REF_FRAME":"TEME","MEAN_MOTION_DOT":"0.00003142","ARG_OF_PERICENTER":"89.5461","PERIAPSIS":"545.787","MEAN_MOTION":"15.06406612","TLE_LINE2":"2 45677  53.0535 115.7199 0002031  89.5461 270.5760 15.06406612 75341","OBJECT_TYPE":"PAYLOAD","SITE":"AFETR","PERIOD":"95.592","ECCENTRICITY":"0.00020310","TIME_SYSTEM":"UTC","DECAY_DATE":null},{"RCS_SIZE":"LARGE","TLE_LINE1":"1 45678U 20035X   21279.75580766  .00001106  00000-0  93149-4 0  9993","LAUNCH_DATE":"2020-06-04","ARG_OF_PERICENTER":"82.0129","MEAN_MOTION_DOT":"0.00001106","OBJECT_ID":"2020-035X","REF_FRAME":"TEME","NORAD_CAT_ID":"45678","MEAN_ANOMALY":"278.1080","MEAN_ELEMENT_THEORY":"SGP4","REV_AT_EPOCH":"7544","FILE":"3148521","OBJECT_TYPE":"PAYLOAD","SITE":"AFETR","PERIOD":"95.592","MEAN_MOTION":"15.06395460","TLE_LINE2":"2 45678  53.0534 106.3425 0001938  82.0129 278.1080 15.06395460 75441","PERIAPSIS":"545.885","DECAY_DATE":null,"TIME_SYSTEM":"UTC","ECCENTRICITY":"0.00019380","CLASSIFICATION_TYPE":"U","BSTAR":"0.00009314900000","EPOCH":"2021-10-06T18:08:21.781824","RA_OF_ASC_NODE":"106.3425","INCLINATION":"53.0534","SEMIMAJOR_AXIS":"6925.362","ELEMENT_SET_NO":"999","GP_ID":"186423254","CENTER_NAME":"EARTH","APOAPSIS":"548.570","COUNTRY_CODE":"US","OBJECT_NAME":"STARLINK-1393","EPHEMERIS_TYPE":"0","MEAN_MOTION_DDOT":"0.0000000000000"},{"SEMIMAJOR_AXIS":"6925.355","INCLINATION":"53.0542","RA_OF_ASC_NODE":"106.0281","EPOCH":"2021-10-06T19:49:12.289152","ELEMENT_SET_NO":"999","BSTAR":"0.00011939000000","CLASSIFICATION_TYPE":"U","COUNTRY_CODE":"US","OBJECT_NAME":"STARLINK-1394","EPHEMERIS_TYPE":"0","MEAN_MOTION_DDOT":"0.0000000000000","GP_ID":"186423505","CENTER_NAME":"EARTH","APOAPSIS":"548.454","OBJECT_ID":"2020-035Y","NORAD_CAT_ID":"45679","REF_FRAME":"TEME","ARG_OF_PERICENTER":"87.8747","MEAN_MOTION_DOT":"0.00001497","FILE":"3148521","MEAN_ANOMALY":"272.2446","MEAN_ELEMENT_THEORY":"SGP4","REV_AT_EPOCH":"7547","TLE_LINE1":"1 45679U 20035Y   21279.82583668  .00001497  00000-0  11939-3 0  9995","LAUNCH_DATE":"2020-06-04","RCS_SIZE":"LARGE","DECAY_DATE":null,"TIME_SYSTEM":"UTC","ECCENTRICITY":"0.00017820","TLE_LINE2":"2 45679  53.0542 106.0281 0001782  87.8747 272.2446 15.06398013 75475","MEAN_MOTION":"15.06398013","SITE":"AFETR","OBJECT_TYPE":"PAYLOAD","PERIOD":"95.592","PERIAPSIS":"545.986"},{"TIME_SYSTEM":"UTC","ECCENTRICITY":"0.00021070","DECAY_DATE":null,"PERIAPSIS":"545.749","PERIOD":"95.592","OBJECT_TYPE":"PAYLOAD","SITE":"AFETR","TLE_LINE2":"2 45680  53.0542 106.2962 0002107  91.8201 268.3029 15.06401896 75452","MEAN_MOTION":"15.06401896","REV_AT_EPOCH":"7545","MEAN_ELEMENT_THEORY":"SGP4","MEAN_ANOMALY":"268.3029","FILE":"3148521","ARG_OF_PERICENTER":"91.8201","MEAN_MOTION_DOT":"0.00000947","NORAD_CAT_ID":"45680","REF_FRAME":"TEME","OBJECT_ID":"2020-035Z","RCS_SIZE":"LARGE","LAUNCH_DATE":"2020-06-04","TLE_LINE1":"1 45680U 20035Z   21279.76684976  .00000947  00000-0  82480-4 0  9993","MEAN_MOTION_DDOT":"0.0000000000000","EPHEMERIS_TYPE":"0","OBJECT_NAME":"STARLINK-1395","COUNTRY_CODE":"US","APOAPSIS":"548.667","CENTER_NAME":"EARTH","GP_ID":"186422254","ELEMENT_SET_NO":"999","EPOCH":"2021-10-06T18:24:15.819264","RA_OF_ASC_NODE":"106.2962","INCLINATION":"53.0542","SEMIMAJOR_AXIS":"6925.343","CLASSIFICATION_TYPE":"U","BSTAR":"0.00008248000000"},{"MEAN_MOTION_DDOT":"0.0000000000000","EPHEMERIS_TYPE":"0","OBJECT_NAME":"STARLINK-1396","COUNTRY_CODE":"US","APOAPSIS":"548.530","CENTER_NAME":"EARTH","GP_ID":"186422504","ELEMENT_SET_NO":"999","EPOCH":"2021-10-06T19:54:31.427424","RA_OF_ASC_NODE":"106.0111","INCLINATION":"53.0529","SEMIMAJOR_AXIS":"6925.375","CLASSIFICATION_TYPE":"U","BSTAR":"0.00007387100000","TIME_SYSTEM":"UTC","ECCENTRICITY":"0.00018640","DECAY_DATE":null,"PERIAPSIS":"545.949","PERIOD":"95.593","OBJECT_TYPE":"PAYLOAD","SITE":"AFETR","TLE_LINE2":"2 45681  53.0529 106.0111 0001864  92.2512 267.8690 15.06391525 75478","MEAN_MOTION":"15.06391525","REV_AT_EPOCH":"7547","MEAN_ELEMENT_THEORY":"SGP4","MEAN_ANOMALY":"267.8690","FILE":"3148521","MEAN_MOTION_DOT":"0.00000819","ARG_OF_PERICENTER":"92.2512","NORAD_CAT_ID":"45681","REF_FRAME":"TEME","OBJECT_ID":"2020-035AA","RCS_SIZE":"LARGE","LAUNCH_DATE":"2020-06-04","TLE_LINE1":"1 45681U 20035AA  21279.82953041  .00000819  00000-0  73871-4 0  9995"},{"CLASSIFICATION_TYPE":"U","BSTAR":"0.00008259500000","EPOCH":"2021-10-06T18:29:36.929184","RA_OF_ASC_NODE":"106.2817","SEMIMAJOR_AXIS":"6925.398","INCLINATION":"53.0549","ELEMENT_SET_NO":"999","APOAPSIS":"548.612","CENTER_NAME":"EARTH","GP_ID":"186423754","COUNTRY_CODE":"US","MEAN_MOTION_DDOT":"0.0000000000000","OBJECT_NAME":"STARLINK-1397","EPHEMERIS_TYPE":"0","RCS_SIZE":"LARGE","LAUNCH_DATE":"2020-06-04","TLE_LINE1":"1 45682U 20035AB  21279.77056631  .00000948  00000-0  82595-4 0  9995","MEAN_MOTION_DOT":"0.00000948","ARG_OF_PERICENTER":"88.0858","NORAD_CAT_ID":"45682","REF_FRAME":"TEME","OBJECT_ID":"2020-035AB","REV_AT_EPOCH":"7545","MEAN_ELEMENT_THEORY":"SGP4","MEAN_ANOMALY":"272.0355","FILE":"3148521","PERIOD":"95.593","SITE":"AFETR","OBJECT_TYPE":"PAYLOAD","MEAN_MOTION":"15.06383961","TLE_LINE2":"2 45682  53.0549 106.2817 0001949  88.0858 272.0355 15.06383961 75455","PERIAPSIS":"545.913","DECAY_DATE":null,"TIME_SYSTEM":"UTC","ECCENTRICITY":"0.00019490"},{"MEAN_MOTION_DDOT":"0.0000000000000","OBJECT_NAME":"STARLINK-1399","EPHEMERIS_TYPE":"0","COUNTRY_CODE":"US","APOAPSIS":"548.729","GP_ID":"186424005","CENTER_NAME":"EARTH","ELEMENT_SET_NO":"999","INCLINATION":"53.0546","SEMIMAJOR_AXIS":"6925.351","EPOCH":"2021-10-06T19:38:35.069280","RA_OF_ASC_NODE":"106.0616","BSTAR":"0.00009990100000","CLASSIFICATION_TYPE":"U","TIME_SYSTEM":"UTC","ECCENTRICITY":"0.00021850","DECAY_DATE":null,"PERIAPSIS":"545.703","TLE_LINE2":"2 45683  53.0546 106.0616 0002185  89.5785 270.5455 15.06399282 75475","MEAN_MOTION":"15.06399282","PERIOD":"95.592","SITE":"AFETR","OBJECT_TYPE":"PAYLOAD","FILE":"3148521","REV_AT_EPOCH":"7547","MEAN_ANOMALY":"270.5455","MEAN_ELEMENT_THEORY":"SGP4","NORAD_CAT_ID":"45683","REF_FRAME":"TEME","OBJECT_ID":"2020-035AC","MEAN_MOTION_DOT":"0.00001207","ARG_OF_PERICENTER":"89.5785","LAUNCH_DATE":"2020-06-04","TLE_LINE1":"1 45683U 20035AC  21279.81846145  .00001207  00000-0  99901-4 0  9996","RCS_SIZE":"LARGE"}];
